SL-8 R/B                
1 21088U 91006B   26089.17396775  .00000112  00000+0  97488-4 0  9998
2 21088  82.9443 154.8167 0021759 341.2995  47.5654 13.77497446766899
OKEAN-3                 
1 21397U 91039A   26089.09228365  .00003449  00000+0  24136-3 0  9992
2 21397  82.5161 317.0750 0012397 261.4906  98.4916 15.04922900868102
COSMOS 2151             
1 21422U 91042A   26089.16080762  .00002686  00000+0  21261-3 0  9998
2 21422  82.4948  63.9228 0012213 358.9747   1.1449 15.00194277866263
SL-14 R/B               
1 21423U 91042B   26088.07000912  .00000523  00000+0  63049-4 0  9996
2 21423  82.4956 202.0127 0017235 172.6233 187.5238 14.81848936855941
ERS-1                   
1 21574U 91050A   26089.06395973  .00000397  00000+0  14146-3 0  9998
2 21574  98.7864 107.8096 0032735 140.3979 219.9608 14.39464879818666
ARIANE 40 R/B           
1 21610U 91050F   26089.06644144  .00000360  00000+0  12012-3 0  9996
2 21610  98.1969 140.5341 0003473  34.5763 325.5653 14.42908335821938
INTERCOSMOS 25          
1 21819U 91086A   26089.04672571  .00002192  00000+0  42340-3 0  9991
2 21819  82.6008 297.7011 1486470  73.0720 302.7571 12.12068637499152
SL-8 R/B                
1 21876U 92008B   26089.17773965  .00000013  00000+0 -25220-5 0  9993
2 21876  82.9233 252.5334 0035870  78.0589  94.2018 13.75969560712237
SL-8 R/B                
1 21938U 92020B   26089.20456237  .00000038  00000+0  24167-4 0  9994
2 21938  82.9300 138.5295 0027804 238.8220 181.7399 13.75550527703958
USA 81                  
1 21949U 92023A   26089.05721338  .00000210  00000+0  70461-4 0  9999
2 21949  85.0045 119.6869 0001731  68.1415 291.9962 14.32374534 97703
COSMOS 2219             
1 22219U 92076A   26089.10576642 -.00000222  00000+0 -91527-4 0  9991
2 22219  71.0619 335.3936 0017854 176.9053 183.2183 14.14090410721268
SL-16 R/B               
1 22220U 92076B   26089.16456334 -.00000169  00000+0 -60384-4 0  9991
2 22220  70.9994 145.2471 0010734  58.1476 332.8781 14.16863686724732
COSMOS 2221             
1 22236U 92080A   26088.96767080  .00002975  00000+0  26052-3 0  9991
2 22236  82.5006 259.6508 0015513 122.0227 238.2504 14.96286734783826
SL-16 R/B               
1 22285U 92093B   26089.09248021  .00000151  00000+0  10171-3 0  9992
2 22285  71.0230 321.4377 0006533 274.0167  86.0209 14.15455201716046
COSMOS 2228             
1 22286U 92094A   26089.17096085  .00003959  00000+0  33839-3 0  9999
2 22286  82.5187 217.7001 0016942 230.1288 129.8445 14.97297508779128
SL-16 R/B               
1 22566U 93016B   26089.20561630  .00000084  00000+0  67533-4 0  9997
2 22566  71.0076 172.0950 0012348 287.6435  72.3339 14.15305781705072
COSMOS 2242             
1 22626U 93024A   26089.16202458  .00003030  00000+0  26311-3 0  9990
2 22626  82.5163 247.1288 0015178 233.6294 126.3528 14.96637351783457
